FLOCK 4X-13             
1 51028U 22002AW  22260.16974137  .00006619  00000+0  34305-3 0  9991
2 51028  97.4762 326.0285 0013925 104.0019 256.2763 15.16424889 37328
FLOCK 4X-39             
1 51029U 22002AX  22260.16351906  .00010639  00000+0  54877-3 0  9998
2 51029  97.4761 326.0391 0013915 102.5903 257.6887 15.16441629 37323
FLOCK 4X-17             
1 51035U 22002BD  22260.49640535  .00004271  00000+0  22291-3 0  9990
2 51035  97.4797 326.3293 0010109 111.3876 248.8437 15.16427052 37363
FLOCK 4X-10             
1 51037U 22002BF  22260.14157435  .00012261  00000+0  63261-3 0  9996
2 51037  97.4810 326.0837 0012762 111.1044 249.1554 15.16408329 37319
FLOCK 4X-36             
1 51039U 22002BH  22260.14467905  .00007892  00000+0  40853-3 0  9990
2 51039  97.4794 326.0738 0011452 113.2924 246.9516 15.16433189 37312
FLOCK 4X-21             
1 51040U 22002BJ  22260.15537434  .00004784  00000+0  24918-3 0  9999
2 51040  97.4784 325.9810 0010198 110.1448 250.0883 15.16432508 37312
FLOCK 4X-31             
1 51041U 22002BK  22260.15821842  .00004460  00000+0  23253-3 0  9991
2 51041  97.4754 325.8691 0010325 105.1080 255.1296 15.16431475 37310
FLOCK 4X-34             
1 51042U 22002BL  22260.15715018  .00006276  00000+0  32552-3 0  9998
2 51042  97.4805 326.0516 0010573 113.8421 246.3921 15.16455069 37319
FLOCK 4X-6              
1 51043U 22002BM  22260.42413947  .00008347  00000+0  43184-3 0  9999
2 51043  97.4794 326.2538 0010403 110.3117 249.9235 15.16445070 37351
FLOCK 4X-28             
1 51045U 22002BP  22260.15359562  .00004540  00000+0  23656-3 0  9996
2 51045  97.4761 325.9046 0010732 103.0515 257.1917 15.16439928 37312
FLOCK 4X-19             
1 51046U 22002BQ  22260.15246167  .00004498  00000+0  23460-3 0  9998
2 51046  97.4797 326.0283 0010596 112.2982 247.9376 15.16412601 37310
FLOCK 4X-9              
1 51047U 22002BR  22260.14936604  .00004850  00000+0  25247-3 0  9997
2 51047  97.4806 326.0550 0011119 113.6926 246.5474 15.16437041 37313
FLOCK 4X-35             
1 51048U 22002BS  22260.14715843  .00005397  00000+0  28052-3 0  9992
2 51048  97.4746 325.8451 0010516 106.5840 253.6548 15.16446382 37319
FLOCK 4X-11             
1 51049U 22002BT  22260.42529232  .00011294  00000+0  58232-3 0  9995
2 51049  97.4751 326.1201 0010360 110.6261 249.6084 15.16477789 37352
FLOCK 4X-40             
1 51052U 22002BW  22260.16444630  .00009677  00000+0  50010-3 0  9996
2 51052  97.4749 325.8513 0010016 110.6585 249.5722 15.16444384 37311
FLOCK 4X-24             
1 51056U 22002CA  22260.16761820  .00005180  00000+0  26946-3 0  9999
2 51056  97.4755 325.8755 0010078 106.8031 253.4308 15.16441820 37317
FLOCK 4X-4              
1 51064U 22002CJ  22260.14276576  .00008153  00000+0  42227-3 0  9998
2 51064  97.4758 325.9069 0010951 103.8822 256.3630 15.16409775 37316
FLOCK 4X-7              
1 51065U 22002CK  22260.15074344  .00005211  00000+0  27099-3 0  9991
2 51065  97.4787 326.0061 0010677 110.2497 249.9884 15.16444812 37318
FLOCK 4X-14             
1 51066U 22002CL  22260.14635821  .00006913  00000+0  35801-3 0  9994
2 51066  97.4817 326.1087 0011364 114.0946 246.1477 15.16464225 37314
